[{"OBJECT_NAME":"TISAT 1","OBJECT_ID":"2010-035E","EPOCH":"2026-03-09T18:10:07.877568","MEAN_MOTION":15.27628633,"ECCENTRICITY":0.00013432,"INCLINATION":98.0645,"RA_OF_ASC_NODE":6.8512,"ARG_OF_PERICENTER":159.303,"MEAN_ANOMALY":200.8262,"EPHEMERIS_TYPE":0,"CLASSIFICATION_TYPE":"U","NORAD_CAT_ID":36799,"ELEMENT_SET_NO":999,"REV_AT_EPOCH":85250,"BSTAR":0.00091004793,"MEAN_MOTION_DOT":0.00024554,"MEAN_MOTION_DDOT":0},{"OBJECT_NAME":"STARLINK-31164","OBJECT_ID":"2024-005F","EPOCH":"2026-03-09T11:09:39.527712","MEAN_MOTION":15.26744385,"ECCENTRICITY":0.00016904,"INCLINATION":43.0011,"RA_OF_ASC_NODE":220.6476,"ARG_OF_PERICENTER":274.9327,"MEAN_ANOMALY":85.1331,"EPHEMERIS_TYPE":0,"CLASSIFICATION_TYPE":"U","NORAD_CAT_ID":58733,"ELEMENT_SET_NO":999,"REV_AT_EPOCH":12040,"BSTAR":0.00019397223,"MEAN_MOTION_DOT":4.947e-5,"MEAN_MOTION_DDOT":0}]
